[{"OBJECT_NAME":"STARLINK-6126","OBJECT_ID":"2023-046AJ","EPOCH":"2026-03-09T22:00:01.999584","MEAN_MOTION":15.125351,"ECCENTRICITY":0.00023023,"INCLINATION":42.9998,"RA_OF_ASC_NODE":144.9048,"ARG_OF_PERICENTER":271.6853,"MEAN_ANOMALY":109.3366,"EPHEMERIS_TYPE":0,"CLASSIFICATION_TYPE":"U","NORAD_CAT_ID":56124,"ELEMENT_SET_NO":999,"REV_AT_EPOCH":577,"BSTAR":0.0675572,"MEAN_MOTION_DOT":0.01299298,"MEAN_MOTION_DDOT":0},{"OBJECT_NAME":"OBJECT S","OBJECT_ID":"2024-199S","EPOCH":"2026-03-09T22:22:49.887840","MEAN_MOTION":15.3495177,"ECCENTRICITY":0.00086914,"INCLINATION":97.3152,"RA_OF_ASC_NODE":299.1504,"ARG_OF_PERICENTER":310.0662,"MEAN_ANOMALY":49.9819,"EPHEMERIS_TYPE":0,"CLASSIFICATION_TYPE":"U","NORAD_CAT_ID":61751,"ELEMENT_SET_NO":999,"REV_AT_EPOCH":12190,"BSTAR":0.00036395153,"MEAN_MOTION_DOT":0.00012279,"MEAN_MOTION_DDOT":0}]
